UNKNOWN                 
1 82597U          26031.37453746  .00002138  00000+0  72306-3 0  9996
2 82597  66.7717  17.2726 0099803 272.9502  86.0182 14.35994145636104
UNKNOWN                 
1 82617U          26032.73843619  .00000755  00000+0  20252-3 0  9998
2 82617  74.0273 147.9098 0037326  78.1887 282.3456 14.49491347644210
UNKNOWN                 
1 82627U          26032.45563366  .00000547  00000+0  14032-2 0  9993
2 82627  82.4753 212.4626 0013392 324.2187  63.5714 13.16384600585505
UNKNOWN                 
1 82642U          26032.97791198  .00002355  00000+0  13099-2 0  9994
2 82642  98.9747 308.1803 0135744  93.2686 268.4022 14.07439108623348
UNKNOWN                 
1 82683U          26034.03662851  .00001405  00000+0  54308-3 0  9995
2 82683  98.1659 104.0567 0209536 242.5500 115.4233 14.20288221469696
UNKNOWN                 
1 82693U          26032.18290514  .00002331  00000+0  27039-2 0  9992
2 82693 100.5289   5.3373 0041561 262.8962  96.7453 13.69835811560660
UNKNOWN                 
1 82698U          26030.23835204  .00004334  00000+0  25156-2 0  9995
2 82698  61.6117  20.5745 0687638 307.6809  46.3706 13.29713249544821
UNKNOWN                 
1 82708U          26032.33495994  .00000682  00000+0  27598-2 0  9992
2 82708 102.1657 245.3912 0060427 186.5006 173.5308 12.90682534530049
UNKNOWN                 
1 82729U          26034.30198165  .00000491  00000+0  17478-2 0  9998
2 82729  67.9680  55.0044 0836970 334.6781  21.5304 12.17839691541607
UNKNOWN                 
1 82739U          26032.41396830  .00001098  00000+0  92951-3 0  9992
2 82739  99.0871 192.0293 0173879 157.9658 231.1302 13.82926661613115
UNKNOWN                 
1 82741U          26033.99121749  .00002080  00000+0  22501-2 0  9999
2 82741 102.8442  91.2571 0204389 150.7423 210.5337 13.66336257604214
UNKNOWN                 
1 82783U          26033.99349099  .00000814  00000+0  23517-2 0  9996
2 82783  90.3399  39.8342 0022315 335.8414  24.1665 13.09066800511197
