CCSDS_OMM_VERS = 2.0
CREATION_DATE  = 
ORIGINATOR     = 

OBJECT_NAME    = UNKNOWN
OBJECT_ID      = 
CENTER_NAME    = EARTH
REF_FRAME      = TEME
TIME_SYSTEM    = UTC
MEAN_ELEMENT_THEORY = SGP/SGP4

EPOCH          = 2026-01-31T08:59:20.036544
MEAN_MOTION    = 14.35994145
ECCENTRICITY   = .0099803
INCLINATION    = 66.7717
RA_OF_ASC_NODE = 17.2726
ARG_OF_PERICENTER = 272.9502
MEAN_ANOMALY   = 86.0182

EPHEMERIS_TYPE = 0
CLASSIFICATION_TYPE = U
NORAD_CAT_ID   = 82597
ELEMENT_SET_NO = 999
REV_AT_EPOCH   = 63610
BSTAR          = .72306E-3
MEAN_MOTION_DOT = .2138E-4
MEAN_MOTION_DDOT = 0

CCSDS_OMM_VERS = 2.0
CREATION_DATE  = 
ORIGINATOR     = 

OBJECT_NAME    = UNKNOWN
OBJECT_ID      = 
CENTER_NAME    = EARTH
REF_FRAME      = TEME
TIME_SYSTEM    = UTC
MEAN_ELEMENT_THEORY = SGP/SGP4

EPOCH          = 2026-02-01T17:43:20.886816
MEAN_MOTION    = 14.49491347
ECCENTRICITY   = .0037326
INCLINATION    = 74.0273
RA_OF_ASC_NODE = 147.9098
ARG_OF_PERICENTER = 78.1887
MEAN_ANOMALY   = 282.3456

EPHEMERIS_TYPE = 0
CLASSIFICATION_TYPE = U
NORAD_CAT_ID   = 82617
ELEMENT_SET_NO = 999
REV_AT_EPOCH   = 64421
BSTAR          = .20252E-3
MEAN_MOTION_DOT = .755E-5
MEAN_MOTION_DDOT = 0

CCSDS_OMM_VERS = 2.0
CREATION_DATE  = 
ORIGINATOR     = 

OBJECT_NAME    = UNKNOWN
OBJECT_ID      = 
CENTER_NAME    = EARTH
REF_FRAME      = TEME
TIME_SYSTEM    = UTC
MEAN_ELEMENT_THEORY = SGP/SGP4

EPOCH          = 2026-02-01T10:56:06.748224
MEAN_MOTION    = 13.16384600
ECCENTRICITY   = .0013392
INCLINATION    = 82.4753
RA_OF_ASC_NODE = 212.4626
ARG_OF_PERICENTER = 324.2187
MEAN_ANOMALY   = 63.5714

EPHEMERIS_TYPE = 0
CLASSIFICATION_TYPE = U
NORAD_CAT_ID   = 82627
ELEMENT_SET_NO = 999
REV_AT_EPOCH   = 58550
BSTAR          = .14032E-2
MEAN_MOTION_DOT = .547E-5
MEAN_MOTION_DDOT = 0

CCSDS_OMM_VERS = 2.0
CREATION_DATE  = 
ORIGINATOR     = 

OBJECT_NAME    = UNKNOWN
OBJECT_ID      = 
CENTER_NAME    = EARTH
REF_FRAME      = TEME
TIME_SYSTEM    = UTC
MEAN_ELEMENT_THEORY = SGP/SGP4

EPOCH          = 2026-02-01T23:28:11.595072
MEAN_MOTION    = 14.07439108
ECCENTRICITY   = .0135744
INCLINATION    = 98.9747
RA_OF_ASC_NODE = 308.1803
ARG_OF_PERICENTER = 93.2686
MEAN_ANOMALY   = 268.4022

EPHEMERIS_TYPE = 0
CLASSIFICATION_TYPE = U
NORAD_CAT_ID   = 82642
ELEMENT_SET_NO = 999
REV_AT_EPOCH   = 62334
BSTAR          = .13099E-2
MEAN_MOTION_DOT = .2355E-4
MEAN_MOTION_DDOT = 0

CCSDS_OMM_VERS = 2.0
CREATION_DATE  = 
ORIGINATOR     = 

OBJECT_NAME    = UNKNOWN
OBJECT_ID      = 
CENTER_NAME    = EARTH
REF_FRAME      = TEME
TIME_SYSTEM    = UTC
MEAN_ELEMENT_THEORY = SGP/SGP4

EPOCH          = 2026-02-03T00:52:44.703264
MEAN_MOTION    = 14.20288221
ECCENTRICITY   = .0209536
INCLINATION    = 98.1659
RA_OF_ASC_NODE = 104.0567
ARG_OF_PERICENTER = 242.5500
MEAN_ANOMALY   = 115.4233

EPHEMERIS_TYPE = 0
CLASSIFICATION_TYPE = U
NORAD_CAT_ID   = 82683
ELEMENT_SET_NO = 999
REV_AT_EPOCH   = 46969
BSTAR          = .54308E-3
MEAN_MOTION_DOT = .1405E-4
MEAN_MOTION_DDOT = 0

CCSDS_OMM_VERS = 2.0
CREATION_DATE  = 
ORIGINATOR     = 

OBJECT_NAME    = UNKNOWN
OBJECT_ID      = 
CENTER_NAME    = EARTH
REF_FRAME      = TEME
TIME_SYSTEM    = UTC
MEAN_ELEMENT_THEORY = SGP/SGP4

EPOCH          = 2026-02-01T04:23:23.004096
MEAN_MOTION    = 13.69835811
ECCENTRICITY   = .0041561
INCLINATION    = 100.5289
RA_OF_ASC_NODE = 5.3373
ARG_OF_PERICENTER = 262.8962
MEAN_ANOMALY   = 96.7453

EPHEMERIS_TYPE = 0
CLASSIFICATION_TYPE = U
NORAD_CAT_ID   = 82693
ELEMENT_SET_NO = 999
REV_AT_EPOCH   = 56066
BSTAR          = .27039E-2
MEAN_MOTION_DOT = .2331E-4
MEAN_MOTION_DDOT = 0

CCSDS_OMM_VERS = 2.0
CREATION_DATE  = 
ORIGINATOR     = 

OBJECT_NAME    = UNKNOWN
OBJECT_ID      = 
CENTER_NAME    = EARTH
REF_FRAME      = TEME
TIME_SYSTEM    = UTC
MEAN_ELEMENT_THEORY = SGP/SGP4

EPOCH          = 2026-01-30T05:43:13.616256
MEAN_MOTION    = 13.29713249
ECCENTRICITY   = .0687638
INCLINATION    = 61.6117
RA_OF_ASC_NODE = 20.5745
ARG_OF_PERICENTER = 307.6809
MEAN_ANOMALY   = 46.3706

EPHEMERIS_TYPE = 0
CLASSIFICATION_TYPE = U
NORAD_CAT_ID   = 82698
ELEMENT_SET_NO = 999
REV_AT_EPOCH   = 54482
BSTAR          = .25156E-2
MEAN_MOTION_DOT = .4334E-4
MEAN_MOTION_DDOT = 0

CCSDS_OMM_VERS = 2.0
CREATION_DATE  = 
ORIGINATOR     = 

OBJECT_NAME    = UNKNOWN
OBJECT_ID      = 
CENTER_NAME    = EARTH
REF_FRAME      = TEME
TIME_SYSTEM    = UTC
MEAN_ELEMENT_THEORY = SGP/SGP4

EPOCH          = 2026-02-01T08:02:20.538816
MEAN_MOTION    = 12.90682534
ECCENTRICITY   = .0060427
INCLINATION    = 102.1657
RA_OF_ASC_NODE = 245.3912
ARG_OF_PERICENTER = 186.5006
MEAN_ANOMALY   = 173.5308

EPHEMERIS_TYPE = 0
CLASSIFICATION_TYPE = U
NORAD_CAT_ID   = 82708
ELEMENT_SET_NO = 999
REV_AT_EPOCH   = 53004
BSTAR          = .27598E-2
MEAN_MOTION_DOT = .682E-5
MEAN_MOTION_DDOT = 0

CCSDS_OMM_VERS = 2.0
CREATION_DATE  = 
ORIGINATOR     = 

OBJECT_NAME    = UNKNOWN
OBJECT_ID      = 
CENTER_NAME    = EARTH
REF_FRAME      = TEME
TIME_SYSTEM    = UTC
MEAN_ELEMENT_THEORY = SGP/SGP4

EPOCH          = 2026-02-03T07:14:51.214560
MEAN_MOTION    = 12.17839691
ECCENTRICITY   = .083697
INCLINATION    = 67.9680
RA_OF_ASC_NODE = 55.0044
ARG_OF_PERICENTER = 334.6781
MEAN_ANOMALY   = 21.5304

EPHEMERIS_TYPE = 0
CLASSIFICATION_TYPE = U
NORAD_CAT_ID   = 82729
ELEMENT_SET_NO = 999
REV_AT_EPOCH   = 54160
BSTAR          = .17478E-2
MEAN_MOTION_DOT = .491E-5
MEAN_MOTION_DDOT = 0

CCSDS_OMM_VERS = 2.0
CREATION_DATE  = 
ORIGINATOR     = 

OBJECT_NAME    = UNKNOWN
OBJECT_ID      = 
CENTER_NAME    = EARTH
REF_FRAME      = TEME
TIME_SYSTEM    = UTC
MEAN_ELEMENT_THEORY = SGP/SGP4

EPOCH          = 2026-02-01T09:56:06.861120
MEAN_MOTION    = 13.82926661
ECCENTRICITY   = .0173879
INCLINATION    = 99.0871
RA_OF_ASC_NODE = 192.0293
ARG_OF_PERICENTER = 157.9658
MEAN_ANOMALY   = 231.1302

EPHEMERIS_TYPE = 0
CLASSIFICATION_TYPE = U
NORAD_CAT_ID   = 82739
ELEMENT_SET_NO = 999
REV_AT_EPOCH   = 61311
BSTAR          = .92951E-3
MEAN_MOTION_DOT = .1098E-4
MEAN_MOTION_DDOT = 0

CCSDS_OMM_VERS = 2.0
CREATION_DATE  = 
ORIGINATOR     = 

OBJECT_NAME    = UNKNOWN
OBJECT_ID      = 
CENTER_NAME    = EARTH
REF_FRAME      = TEME
TIME_SYSTEM    = UTC
MEAN_ELEMENT_THEORY = SGP/SGP4

EPOCH          = 2026-02-02T23:47:21.191136
MEAN_MOTION    = 13.66336257
ECCENTRICITY   = .0204389
INCLINATION    = 102.8442
RA_OF_ASC_NODE = 91.2571
ARG_OF_PERICENTER = 150.7423
MEAN_ANOMALY   = 210.5337

EPHEMERIS_TYPE = 0
CLASSIFICATION_TYPE = U
NORAD_CAT_ID   = 82741
ELEMENT_SET_NO = 999
REV_AT_EPOCH   = 60421
BSTAR          = .22501E-2
MEAN_MOTION_DOT = .208E-4
MEAN_MOTION_DDOT = 0

CCSDS_OMM_VERS = 2.0
CREATION_DATE  = 
ORIGINATOR     = 

OBJECT_NAME    = UNKNOWN
OBJECT_ID      = 
CENTER_NAME    = EARTH
REF_FRAME      = TEME
TIME_SYSTEM    = UTC
MEAN_ELEMENT_THEORY = SGP/SGP4

EPOCH          = 2026-02-02T23:50:37.621536
MEAN_MOTION    = 13.09066800
ECCENTRICITY   = .0022315
INCLINATION    = 90.3399
RA_OF_ASC_NODE = 39.8342
ARG_OF_PERICENTER = 335.8414
MEAN_ANOMALY   = 24.1665

EPHEMERIS_TYPE = 0
CLASSIFICATION_TYPE = U
NORAD_CAT_ID   = 82783
ELEMENT_SET_NO = 999
REV_AT_EPOCH   = 51119
BSTAR          = .23517E-2
MEAN_MOTION_DOT = .814E-5
MEAN_MOTION_DDOT = 0

